[{"OBJECT_NAME":"GAOFEN-12 04","OBJECT_ID":"2023-123A","EPOCH":"2026-03-09T23:07:49.236384","MEAN_MOTION":14.80004662,"ECCENTRICITY":0.00016529,"INCLINATION":97.9129,"RA_OF_ASC_NODE":348.4218,"ARG_OF_PERICENTER":75.8828,"MEAN_ANOMALY":284.2567,"EPHEMERIS_TYPE":0,"CLASSIFICATION_TYPE":"U","NORAD_CAT_ID":57654,"ELEMENT_SET_NO":999,"REV_AT_EPOCH":13795,"BSTAR":0.00022872409,"MEAN_MOTION_DOT":1.679e-5,"MEAN_MOTION_DDOT":0},{"OBJECT_NAME":"COSMOS 375 DEB","OBJECT_ID":"1970-091Z","EPOCH":"2026-03-09T13:43:41.947392","MEAN_MOTION":13.58948418,"ECCENTRICITY":0.0630836,"INCLINATION":62.9049,"RA_OF_ASC_NODE":140.391,"ARG_OF_PERICENTER":272.7873,"MEAN_ANOMALY":80.1163,"EPHEMERIS_TYPE":0,"CLASSIFICATION_TYPE":"U","NORAD_CAT_ID":4728,"ELEMENT_SET_NO":999,"REV_AT_EPOCH":66345,"BSTAR":0.0008215,"MEAN_MOTION_DOT":2.183e-5,"MEAN_MOTION_DDOT":0}]
